ELYSIUM STAR 2 & LFF    
1 43760U 18099C   24156.43093771  .00046523  00000+0  18560-2 0  9990
2 43760  97.5178 223.9661 0004486 311.1123  48.9727 15.25017201301298
